CCSDS_OMM_VERS = 2.0
CREATION_DATE  = 
ORIGINATOR     = 

OBJECT_NAME    = ORBVIEW 2 (SEASTAR)
OBJECT_ID      = 1997-037A
CENTER_NAME    = EARTH
REF_FRAME      = TEME
TIME_SYSTEM    = UTC
MEAN_ELEMENT_THEORY = SGP/SGP4

EPOCH          = 2025-11-30T00:28:18.522048
MEAN_MOTION    = 14.35401613
ECCENTRICITY   = .0002301
INCLINATION    = 98.8451
RA_OF_ASC_NODE = 130.7743
ARG_OF_PERICENTER = 19.7457
MEAN_ANOMALY   = 340.3816

EPHEMERIS_TYPE = 0
CLASSIFICATION_TYPE = U
NORAD_CAT_ID   = 24883
ELEMENT_SET_NO = 999
REV_AT_EPOCH   = 49417
BSTAR          = .14415E-3
MEAN_MOTION_DOT = .367E-5
MEAN_MOTION_DDOT = 0

CCSDS_OMM_VERS = 2.0
CREATION_DATE  = 
ORIGINATOR     = 

OBJECT_NAME    = SL-16 R/B
OBJECT_ID      = 1998-043G
CENTER_NAME    = EARTH
REF_FRAME      = TEME
TIME_SYSTEM    = UTC
MEAN_ELEMENT_THEORY = SGP/SGP4

EPOCH          = 2025-11-30T02:21:56.594016
MEAN_MOTION    = 14.26020672
ECCENTRICITY   = .0008987
INCLINATION    = 98.8105
RA_OF_ASC_NODE = 281.8471
ARG_OF_PERICENTER = 307.5975
MEAN_ANOMALY   = 52.4388

EPHEMERIS_TYPE = 0
CLASSIFICATION_TYPE = U
NORAD_CAT_ID   = 25400
ELEMENT_SET_NO = 999
REV_AT_EPOCH   = 42479
BSTAR          = .61252E-4
MEAN_MOTION_DOT = .101E-5
MEAN_MOTION_DDOT = 0

CCSDS_OMM_VERS = 2.0
CREATION_DATE  = 
ORIGINATOR     = 

OBJECT_NAME    = SL-16 R/B
OBJECT_ID      = 1998-045B
CENTER_NAME    = EARTH
REF_FRAME      = TEME
TIME_SYSTEM    = UTC
MEAN_ELEMENT_THEORY = SGP/SGP4

EPOCH          = 2025-11-30T02:54:35.770176
MEAN_MOTION    = 14.16173623
ECCENTRICITY   = .0007681
INCLINATION    = 71.0127
RA_OF_ASC_NODE = 30.9634
ARG_OF_PERICENTER = 195.2367
MEAN_ANOMALY   = 164.8527

EPHEMERIS_TYPE = 0
CLASSIFICATION_TYPE = U
NORAD_CAT_ID   = 25407
ELEMENT_SET_NO = 999
REV_AT_EPOCH   = 41300
BSTAR          = .15168E-3
MEAN_MOTION_DOT = .253E-5
MEAN_MOTION_DDOT = 0

CCSDS_OMM_VERS = 2.0
CREATION_DATE  = 
ORIGINATOR     = 

OBJECT_NAME    = ISS (ZARYA)
OBJECT_ID      = 1998-067A
CENTER_NAME    = EARTH
REF_FRAME      = TEME
TIME_SYSTEM    = UTC
MEAN_ELEMENT_THEORY = SGP/SGP4

EPOCH          = 2025-11-29T21:34:37.466400
MEAN_MOTION    = 15.49196254
ECCENTRICITY   = .0003727
INCLINATION    = 51.6312
RA_OF_ASC_NODE = 206.0453
ARG_OF_PERICENTER = 184.4038
MEAN_ANOMALY   = 175.6918

EPHEMERIS_TYPE = 0
CLASSIFICATION_TYPE = U
NORAD_CAT_ID   = 25544
ELEMENT_SET_NO = 999
REV_AT_EPOCH   = 54086
BSTAR          = .16851E-3
MEAN_MOTION_DOT = .8908E-4
MEAN_MOTION_DDOT = 0

CCSDS_OMM_VERS = 2.0
CREATION_DATE  = 
ORIGINATOR     = 

OBJECT_NAME    = CZ-4B R/B
OBJECT_ID      = 1999-025C
CENTER_NAME    = EARTH
REF_FRAME      = TEME
TIME_SYSTEM    = UTC
MEAN_ELEMENT_THEORY = SGP/SGP4

EPOCH          = 2025-11-30T02:44:06.803232
MEAN_MOTION    = 14.18238730
ECCENTRICITY   = .0036051
INCLINATION    = 98.6789
RA_OF_ASC_NODE = 15.6754
ARG_OF_PERICENTER = 271.2905
MEAN_ANOMALY   = 114.9178

EPHEMERIS_TYPE = 0
CLASSIFICATION_TYPE = U
NORAD_CAT_ID   = 25732
ELEMENT_SET_NO = 999
REV_AT_EPOCH   = 37405
BSTAR          = .6804E-4
MEAN_MOTION_DOT = .97E-6
MEAN_MOTION_DDOT = 0

CCSDS_OMM_VERS = 2.0
CREATION_DATE  = 
ORIGINATOR     = 

OBJECT_NAME    = OKEAN-O
OBJECT_ID      = 1999-039A
CENTER_NAME    = EARTH
REF_FRAME      = TEME
TIME_SYSTEM    = UTC
MEAN_ELEMENT_THEORY = SGP/SGP4

EPOCH          = 2025-11-30T03:33:05.690592
MEAN_MOTION    = 14.80127060
ECCENTRICITY   = .0000917
INCLINATION    = 97.9621
RA_OF_ASC_NODE = 29.9577
ARG_OF_PERICENTER = 73.9731
MEAN_ANOMALY   = 286.1581

EPHEMERIS_TYPE = 0
CLASSIFICATION_TYPE = U
NORAD_CAT_ID   = 25860
ELEMENT_SET_NO = 999
REV_AT_EPOCH   = 41966
BSTAR          = .12747E-3
MEAN_MOTION_DOT = .915E-5
MEAN_MOTION_DDOT = 0

CCSDS_OMM_VERS = 2.0
CREATION_DATE  = 
ORIGINATOR     = 

OBJECT_NAME    = SL-16 R/B
OBJECT_ID      = 1999-039B
CENTER_NAME    = EARTH
REF_FRAME      = TEME
TIME_SYSTEM    = UTC
MEAN_ELEMENT_THEORY = SGP/SGP4

EPOCH          = 2025-11-30T03:43:27.602112
MEAN_MOTION    = 14.81557367
ECCENTRICITY   = .0014031
INCLINATION    = 98.0145
RA_OF_ASC_NODE = 28.3047
ARG_OF_PERICENTER = 216.3610
MEAN_ANOMALY   = 143.6650

EPHEMERIS_TYPE = 0
CLASSIFICATION_TYPE = U
NORAD_CAT_ID   = 25861
ELEMENT_SET_NO = 999
REV_AT_EPOCH   = 42212
BSTAR          = .10438E-3
MEAN_MOTION_DOT = .766E-5
MEAN_MOTION_DDOT = 0

CCSDS_OMM_VERS = 2.0
CREATION_DATE  = 
ORIGINATOR     = 

OBJECT_NAME    = DELTA 2 R/B
OBJECT_ID      = 1999-041E
CENTER_NAME    = EARTH
REF_FRAME      = TEME
TIME_SYSTEM    = UTC
MEAN_ELEMENT_THEORY = SGP/SGP4

EPOCH          = 2025-11-30T00:54:52.015392
MEAN_MOTION    = 14.11348526
ECCENTRICITY   = .0504868
INCLINATION    = 51.7620
RA_OF_ASC_NODE = 339.1479
ARG_OF_PERICENTER = 54.3362
MEAN_ANOMALY   = 310.3497

EPHEMERIS_TYPE = 0
CLASSIFICATION_TYPE = U
NORAD_CAT_ID   = 25876
ELEMENT_SET_NO = 999
REV_AT_EPOCH   = 34895
BSTAR          = .23305E-3
MEAN_MOTION_DOT = .12E-4
MEAN_MOTION_DDOT = 0

CCSDS_OMM_VERS = 2.0
CREATION_DATE  = 
ORIGINATOR     = 

OBJECT_NAME    = HELIOS 1B
OBJECT_ID      = 1999-064A
CENTER_NAME    = EARTH
REF_FRAME      = TEME
TIME_SYSTEM    = UTC
MEAN_ELEMENT_THEORY = SGP/SGP4

EPOCH          = 2025-11-29T22:52:26.505120
MEAN_MOTION    = 14.87198556
ECCENTRICITY   = .0002267
INCLINATION    = 98.1752
RA_OF_ASC_NODE = 228.2400
ARG_OF_PERICENTER = 59.7771
MEAN_ANOMALY   = 300.3668

EPHEMERIS_TYPE = 0
CLASSIFICATION_TYPE = U
NORAD_CAT_ID   = 25977
ELEMENT_SET_NO = 999
REV_AT_EPOCH   = 67043
BSTAR          = .25832E-3
MEAN_MOTION_DOT = .2266E-4
MEAN_MOTION_DDOT = 0

CCSDS_OMM_VERS = 2.0
CREATION_DATE  = 
ORIGINATOR     = 

OBJECT_NAME    = TERRA
OBJECT_ID      = 1999-068A
CENTER_NAME    = EARTH
REF_FRAME      = TEME
TIME_SYSTEM    = UTC
MEAN_ELEMENT_THEORY = SGP/SGP4

EPOCH          = 2025-11-30T03:00:44.601408
MEAN_MOTION    = 14.60929487
ECCENTRICITY   = .0003314
INCLINATION    = 97.9767
RA_OF_ASC_NODE = 26.2716
ARG_OF_PERICENTER = 123.4082
MEAN_ANOMALY   = 264.4402

EPHEMERIS_TYPE = 0
CLASSIFICATION_TYPE = U
NORAD_CAT_ID   = 25994
ELEMENT_SET_NO = 999
REV_AT_EPOCH   = 38054
BSTAR          = .12988E-3
MEAN_MOTION_DOT = .591E-5
MEAN_MOTION_DDOT = 0

CCSDS_OMM_VERS = 2.0
CREATION_DATE  = 
ORIGINATOR     = 

OBJECT_NAME    = SL-16 R/B
OBJECT_ID      = 2000-006B
CENTER_NAME    = EARTH
REF_FRAME      = TEME
TIME_SYSTEM    = UTC
MEAN_ELEMENT_THEORY = SGP/SGP4

EPOCH          = 2025-11-30T04:21:21.358080
MEAN_MOTION    = 14.15805092
ECCENTRICITY   = .0017735
INCLINATION    = 71.0024
RA_OF_ASC_NODE = 307.0628
ARG_OF_PERICENTER = 326.2490
MEAN_ANOMALY   = 33.7503

EPHEMERIS_TYPE = 0
CLASSIFICATION_TYPE = U
NORAD_CAT_ID   = 26070
ELEMENT_SET_NO = 999
REV_AT_EPOCH   = 33447
BSTAR          = .20419E-3
MEAN_MOTION_DOT = .354E-5
MEAN_MOTION_DDOT = 0

CCSDS_OMM_VERS = 2.0
CREATION_DATE  = 
ORIGINATOR     = 

OBJECT_NAME    = TITAN 4B R/B
OBJECT_ID      = 2000-047B
CENTER_NAME    = EARTH
REF_FRAME      = TEME
TIME_SYSTEM    = UTC
MEAN_ELEMENT_THEORY = SGP/SGP4

EPOCH          = 2025-11-30T01:55:59.177856
MEAN_MOTION    = 15.08636206
ECCENTRICITY   = .0039877
INCLINATION    = 67.9899
RA_OF_ASC_NODE = 320.4055
ARG_OF_PERICENTER = 159.4615
MEAN_ANOMALY   = 200.8148

EPHEMERIS_TYPE = 0
CLASSIFICATION_TYPE = U
NORAD_CAT_ID   = 26474
ELEMENT_SET_NO = 999
REV_AT_EPOCH   = 37788
BSTAR          = .28148E-3
MEAN_MOTION_DOT = .4364E-4
MEAN_MOTION_DDOT = 0

