ORBVIEW 2 (SEASTAR)     
1 24883U 97037A   25334.01965882  .00000367  00000+0  14415-3 0  9990
2 24883  98.8451 130.7743 0002301  19.7457 340.3816 14.35401613494174
SL-16 R/B               
1 25400U 98043G   25334.09857169  .00000101  00000+0  61252-4 0  9998
2 25400  98.8105 281.8471 0008987 307.5975  52.4388 14.26020672424799
SL-16 R/B               
1 25407U 98045B   25334.12124734  .00000253  00000+0  15168-3 0  9998
2 25407  71.0127  30.9634 0007681 195.2367 164.8527 14.16173623413003
ISS (ZARYA)             
1 25544U 98067A   25333.89904475  .00008908  00000+0  16851-3 0  9990
2 25544  51.6312 206.0453 0003727 184.4038 175.6918 15.49196254540863
CZ-4B R/B               
1 25732U 99025C   25334.11396763  .00000097  00000+0  68040-4 0  9994
2 25732  98.6789  15.6754 0036051 271.2905 114.9178 14.18238730374054
OKEAN-O                 
1 25860U 99039A   25334.14798253  .00000915  00000+0  12747-3 0  9995
2 25860  97.9621  29.9577 0000917  73.9731 286.1581 14.80127060419669
SL-16 R/B               
1 25861U 99039B   25334.15518058  .00000766  00000+0  10438-3 0  9999
2 25861  98.0145  28.3047 0014031 216.3610 143.6650 14.81557367422126
DELTA 2 R/B             
1 25876U 99041E   25334.03810203  .00001200  00000+0  23305-3 0  9993
2 25876  51.7620 339.1479 0504868  54.3362 310.3497 14.11348526348952
HELIOS 1B               
1 25977U 99064A   25333.95308455  .00002266  00000+0  25832-3 0  9991
2 25977  98.1752 228.2400 0002267  59.7771 300.3668 14.87198556670435
TERRA                   
1 25994U 99068A   25334.12551622  .00000591  00000+0  12988-3 0  9997
2 25994  97.9767  26.2716 0003314 123.4082 264.4402 14.60929487380543
SL-16 R/B               
1 26070U 00006B   25334.18149720  .00000354  00000+0  20419-3 0  9990
2 26070  71.0024 307.0628 0017735 326.2490  33.7503 14.15805092334473
TITAN 4B R/B            
1 26474U 00047B   25334.08054604  .00004364  00000+0  28148-3 0  9990
2 26474  67.9899 320.4055 0039877 159.4615 200.8148 15.08636206377880
